satname,norad_id,inclination_deg,eccentricity,mean_motion_rev_per_day,perigee_km,apogee_km,l1,l2
STARLINK-1202,45183,53.163,0.0001252,15.30190722,474.3847288474726,476.10081514238027,1 45183U 20012F   26075.80783537 -.00001735  00000+0 -46489-4 0  9999,2 45183  53.1630   6.1881 0001252  89.1763 270.9381 15.30190722336045
STARLINK-1216,45185,53.1629,0.000112,15.30179343,474.50916585194045,476.0443305315348,1 45185U 20012H   26075.07988193 -.00001855  00000+0 -50567-4 0  9990,2 45185  53.1629   9.5469 0001120  81.8202 278.2926 15.30179343335877
STARLINK-1225,45187,53.1603,0.0001433,15.30176343,474.30361039340823,476.2678013409095,1 45187U 20012K   26075.27273698 -.00002464  00000+0 -71130-4 0  9997,2 45187  53.1603   9.0924 0001433  88.5649 271.5516 15.30176343335944
STARLINK-1230,45189,53.1637,0.000155,15.3019132,474.17871286935497,476.3032600451561,1 45189U 20012M   26075.54348364 -.00000535  00000+0 -59264-5 0  9994,2 45189  53.1637   7.8952 0001550  89.0772 271.0407 15.30191320333217
STARLINK-1234,45190,53.0423,0.0004445,15.64234306,372.4398166743522,378.4437482119429,1 45190U 20012N   26075.87581090  .00118631  00000+0  12098-2 0  9993,2 45190  53.0423 290.1204 0004445 315.7072  44.3586 15.64234306337005
STARLINK-1269,45197,53.1628,0.0001309,15.3018619,474.3591947166906,476.1534130836526,1 45197U 20012V   26075.08309856  .00000068  00000+0  14436-4 0  9995,2 45197  53.1628   9.8929 0001309  83.1483 276.9666 15.30186190335894
STARLINK-1154,45198,53.0488,0.0007264,15.47279731,419.7461878204058,429.62933163133584,1 45198U 20012W   26075.01845318  .00073122  00000+0  14053-2 0  9991,2 45198  53.0488 339.7868 0007264 115.0917 245.0845 15.47279731336279
STARLINK-1199,45201,53.1621,0.0001043,15.30190608,474.52830483611797,475.9579199275604,1 45201U 20012Z   26075.77084971 -.00000827  00000+0 -15818-4 0  9995,2 45201  53.1621 350.9459 0001043  96.3805 263.7314 15.30190608336243
STARLINK-1209,45206,53.0466,0.0006512,15.5248299,405.05905464729494,413.899245921426,1 45206U 20012AE  26075.88832526  .00085435  00000+0  13635-2 0  9998,2 45206  53.0466 298.8075 0006512 295.7465  64.2871 15.52482990336032
STARLINK-1231,45212,53.0482,0.0004312,15.21821513,497.38042489810596,503.3124290055084,1 45212U 20012AL  26075.70864431  .00034698  00000+0  15152-2 0  9997,2 45212  53.0482 343.5388 0004312 113.4454 246.6995 15.21821513336297
STARLINK-1271,45217,53.1614,9.8e-05,15.30168364,474.63789268035544,475.981168200321,1 45217U 20012AR  26075.76876690  .00003294  00000+0  12342-3 0  9995,2 45217  53.1614 351.0811 0000980  64.8368 295.2734 15.30168364336249
STARLINK-1191,45222,53.159,0.0001015,15.30743732,472.89661375684864,474.28751475689296,1 45222U 20012AW  26075.85319166  .00043933  00000+0  14619-2 0  9993,2 45222  53.1590 325.5429 0001015 121.7851 238.3249 15.30743732336617
STARLINK-1212,45223,53.0494,0.0005598,15.53595497,402.44052834336253,410.036315065503,1 45223U 20012AX  26075.86622750  .00085990  00000+0  13184-2 0  9996,2 45223  53.0494 315.5043 0005598 145.2750 214.8625 15.53595497336750
STARLINK-1215,45225,53.1591,0.0001218,15.30175013,474.454929743355,476.12442448189995,1 45225U 20012AZ  26075.84033588  .00005860  00000+0  20997-3 0  9990,2 45225  53.1591 325.0914 0001218  73.8151 286.2983 15.30175013336573
STARLINK-1221,45227,53.0645,0.000341,15.42192538,437.3148934125102,441.96461715961505,1 45227U 20012BB  26075.71675144  .00016556  00000+0  38861-3 0  9991,2 45227  53.0645 236.3089 0003410  60.1188 300.0155 15.42192538337791
STARLINK-1222,45228,53.056,0.0003937,15.49970427,414.13732670938043,419.487669944363,1 45228U 20012BC  26075.84374540  .00020460  00000+0  36629-3 0  9991,2 45228  53.0560 308.5027 0003937 104.9320 255.2124 15.49970427336739
STARLINK-1226,45229,53.1601,8.89e-05,15.30677691,473.18000490725353,474.3982773751486,1 45229U 20012BD  26075.86881486  .00039343  00000+0  13139-2 0  9996,2 45229  53.1601 325.2614 0000889 200.8261 159.2704 15.30677691336518
STARLINK-1227,45230,53.1608,5.27e-05,15.31353231,471.41290032594225,472.1348809338142,1 45230U 20012BE  26075.69116978  .00021179  00000+0  69980-3 0  9990,2 45230  53.1608 326.2987 0000527 128.6187 231.4862 15.31353231336604
STARLINK-1246,45235,53.1611,0.0001242,15.30182368,474.4165230329445,476.11890876437246,1 45235U 20012BK  26075.09252745 -.00002080  00000+0 -58148-4 0  9999,2 45235  53.1611   9.5056 0001242  71.4857 288.6279 15.30182368335958
STARLINK-1270,45237,53.049,0.000342,15.48278017,419.43769980803063,424.08883158976823,1 45237U 20012BM  26075.87962316  .00075109  00000+0  13947-2 0  9995,2 45237  53.0490 313.1774 0003420 132.7782 227.3514 15.48278017336783
STARLINK-1279,45360,53.0433,0.0001905,15.58414882,390.95436215228074,393.5338773589083,1 45360U 20019A   26075.69055443  .00100655  00000+0  12888-2 0  9991,2 45360  53.0433  64.6972 0001905  98.3247 261.7980 15.58414882331769
STARLINK-1301,45361,53.0416,6.38e-05,15.65770926,370.591900883227,371.4530936350757,1 45361U 20019B   26075.68327371  .00050495  00000+0  49176-3 0  9990,2 45361  53.0416  69.7274 0000638 193.5968 166.5030 15.65770926331706
STARLINK-1262,45366,53.1563,0.0001413,15.29349457,476.78707675602254,478.72455206537416,1 45366U 20019G   26075.86041707 -.00001647  00000+0 -44775-4 0  9999,2 45366  53.1563 131.8436 0001413  89.0925 271.0238 15.29349457330858
STARLINK-1273,45367,53.0511,0.0003476,15.4541278,427.7989038445976,432.53203572159146,1 45367U 20019H   26075.84508622  .00067045  00000+0  13766-2 0  9998,2 45367  53.0511 120.7459 0003476  26.5922 333.5262 15.45412780331004
STARLINK-1276,45368,53.0728,0.0001496,15.11112632,531.7716925694267,533.8394465862448,1 45368U 20019J   26075.56658200  .00016848  00000+0  10093-2 0  9991,2 45368  53.0728 135.5700 0001496  91.0094 269.1069 15.11112632330773
STARLINK-1277,45369,53.0505,0.000487,15.49983314,413.4657127888004,420.08395691594615,1 45369U 20019K   26074.43511600  .00143144  00000+0  24745-2 0  9998,2 45369  53.0505 125.0710 0004870  27.1392 332.9870 15.49983314330821
STARLINK-1281,45370,53.161,0.0001863,15.30185757,473.9808093664951,476.5343841932545,1 45370U 20019L   26075.85606537 -.00002328  00000+0 -66515-4 0  9994,2 45370  53.1610 132.0010 0001863  92.0160 268.1055 15.30185757330858
STARLINK-1300,45374,53.1555,0.000124,15.29349732,476.9048619420855,478.60512315623873,1 45374U 20019Q   26075.91668981  .00012034  00000+0  42875-3 0  9991,2 45374  53.1555 131.7075 0001240  78.5946 143.5962 15.29349732  5784
STARLINK-1302,45375,53.0534,0.0003571,15.55003912,399.72002032689306,404.562495058537,1 45375U 20019R   26075.84310140  .00093097  00000+0  13547-2 0  9996,2 45375  53.0534 117.2151 0003571 347.8154  12.2769 15.55003912331052
STARLINK-1304,45376,53.0492,0.0003359,15.49545126,415.7729324153006,420.3386147205829,1 45376U 20019S   26075.80746725  .00072921  00000+0  12959-2 0  9994,2 45376  53.0492 115.3996 0003359  10.5648 349.5430 15.49545126331072
STARLINK-1305,45377,53.0444,0.0003221,15.54471833,401.5039543981411,405.8728063081644,1 45377U 20019T   26075.78549695  .00086083  00000+0  12789-2 0  9994,2 45377  53.0444  98.0122 0003221 103.5172 256.6197 15.54471833331326
STARLINK-1319,45379,53.0435,0.00028,15.66051005,368.3282356468071,372.10731432079774,1 45379U 20019V   26075.75635740  .00048722  00000+0  46945-3 0  9990,2 45379  53.0435  94.9951 0002800  68.9505 291.1809 15.66051005331365
STARLINK-1266,45383,53.05,0.0004824,15.46666847,423.2022216723817,429.7673207572507,1 45383U 20019Z   26075.76958049  .00065185  00000+0  12824-2 0  9996,2 45383  53.0500  99.1918 0004824  41.0245 319.1124 15.46666847331291
STARLINK-1267,45384,53.0512,0.0002163,15.51079551,412.1038411377167,415.0419348352598,1 45384U 20019AA  26075.77500265  .00080531  00000+0  13535-2 0  9993,2 45384  53.0512  92.9851 0002163 314.8445  45.2387 15.51079551331383
STARLINK-1272,45386,53.0445,0.0002503,15.5768883,392.65262486184474,396.0429307416125,1 45386U 20019AC  26075.72810364  .00061071  00000+0  81011-3 0  9997,2 45386  53.0445  75.6372 0002503 121.3367 238.7889 15.57688830331623
STARLINK-1274,45387,53.0268,0.000241,15.4831104,420.0278253561037,423.3053306807087,1 45387U 20019AD  26075.69632029  .00079928  00000+0  14811-2 0  9997,2 45387  53.0268  69.4126 0002410 254.0862 105.9880 15.48311040331707
STARLINK-1280,45388,53.0425,0.0001682,15.66272277,368.44722005367566,370.7171527879873,1 45388U 20019AE  26074.77786422  .00053971  00000+0  51457-3 0  9991,2 45388  53.0425  92.5649 0001682  81.0676 279.0529 15.66272277331296
STARLINK-1283,45389,53.0425,0.0002641,15.58147739,391.22968604288144,394.80621008644994,1 45389U 20019AF  26075.91668981  .00142494  00000+0  18306-2 0  9992,2 45389  53.0425  74.9246 0002641 269.4852 140.1142 15.58147739  5717
STARLINK-1284,45390,53.0475,0.000473,15.53109287,404.44459432603526,410.86395287085816,1 45390U 20019AG  26075.75969596  .00082885  00000+0  12944-2 0  9991,2 45390  53.0475  96.9371 0004730  40.7229 319.4133 15.53109287331327
STARLINK-1297,45395,53.0468,0.0005686,15.55624212,396.48448759531857,404.192970194219,1 45395U 20019AM  26075.88827051  .00092427  00000+0  13143-2 0  9994,2 45395  53.0468  95.9037 0005686  44.0293 316.1170 15.55624212330530
STARLINK-1307,45397,53.0541,0.000266,15.50399307,413.7522130710313,417.3664595219416,1 45397U 20019AP  26075.77446218  .00019397  00000+0  34256-3 0  9990,2 45397  53.0541  96.7399 0002660  52.4197 307.7052 15.50399307331152
STARLINK-1255,45399,53.0412,0.0001702,15.53257328,406.0682291545709,408.37796573174,1 45399U 20019AR  26075.70572432  .00094962  00000+0  14722-2 0  9999,2 45399  53.0412  68.9402 0001702  27.4222 332.6877 15.53257328331526
STARLINK-1260,45404,53.1602,0.000133,15.30209546,474.2750748977742,476.0980589665787,1 45404U 20019AW  26075.75171144 -.00006282  00000+0 -20007-3 0  9990,2 45404  53.1602  96.4387 0001330 137.9258 222.1845 15.30209546331056
